25286,IRIDIUM 63,1998,100.25,-1.0,-,86.39,Inactive,0,LEO,Kazakhstan,USA,Unknown,Unknown,Unknown,1 25286U 98021B   25094.55187713  .00000753  00000+0  25020-3 0  9996,2 25286  86.3933 113.0341 0002368  94.3428 265.8040 14.36460136413275,14.36460136,0.0002368,LEO
25319,IRIDIUM 69,1998,99.94,-1.0,-,86.39,Inactive,0,LEO,PRC,USA,Unknown,Unknown,Unknown,1 25319U 98026A   25094.58163101  .00000900  00000+0  27490-3 0  9993,2 25319  86.3951 126.5345 0000196 173.1865 186.9337 14.40868454412465,14.40868454,1.96e-05,LEO
25320,IRIDIUM 71,1998,99.93,-1.0,-,86.39,Inactive,0,LEO,PRC,USA,Unknown,Unknown,Unknown,1 25320U 98026B   25094.52895871  .00000722  00000+0  21829-3 0  9997,2 25320  86.3939 121.2605 0002187  34.7118 325.4224 14.41067695413239,14.41067695,0.0002187,LEO
25344,IRIDIUM 73,1998,99.2,-1.0,-,86.44,Inactive,0,LEO,USA,USA,Unknown,Unknown,Unknown,1 25344U 98032C   25094.44378569  .00001663  00000+0  41051-3 0  9995,2 25344  86.4366  78.1360 0001795  96.3590 263.7820 14.51577044419866,14.51577044,0.0001795,LEO
25467,IRIDIUM 82,1998,94.24,-1.0,-,86.37,Inactive,0,LEO,USA,USA,Unknown,Unknown,Unknown,1 25467U 98051A   25094.59241939  .00036912  00000+0  11888-2 0  9997,2 25467  86.3700 145.8088 0092088 213.6980 145.8393 15.27927950412704,15.2792795,0.0092088,LEO
